NORAD_CAT_ID,OBJECT_NAME,OBJECT_TYPE,EPOCH,MEAN_MOTION,ECCENTRICITY,INCLINATION,RA_OF_ASC_NODE,ARG_OF_PERICENTER,MEAN_ANOMALY,BSTAR,MEAN_MOTION_DOT,MEAN_MOTION_DDOT,TLE_LINE0,TLE_LINE1,TLE_LINE2,SEMIMAJOR_AXIS,PERIOD,APOGEE,PERIGEE,DECAYED
53252.0,STARLINK-4132,PAYLOAD,2023-10-18 07:56:03,15.08850387,0.0001032,53.2149,154.7316,70.0311,290.0792,0.00022427,3.284e-05,0.0,0 STARLINK-4132,1 53252U 22086L   23291.33059343  .00003284  00000-0  22427-3 0  9999,2 53252  53.2149 154.7316 0001032  70.0311 290.0792 15.08850387 69030,6917.849,95.437,540.428,539.0,0.0
53252.0,STARLINK-4132,PAYLOAD,2023-10-20 13:59:10,15.08840231,0.0001397,53.2159,144.6224,75.6366,284.4781,0.00010876,1.443e-05,0.0,0 STARLINK-4132,1 53252U 22086L   23293.58275962  .00001443  00000-0  10876-3 0  9995,2 53252  53.2159 144.6224 0001397  75.6366 284.4781 15.08840231 69573,6917.88,95.438,540.711,538.778,0.0
53252.0,STARLINK-4132,PAYLOAD,2023-10-20 20:20:42,15.08833436,0.0002288,53.2154,143.4339,89.6137,270.5118,-9.2295e-05,-1.757e-05,0.0,0 STARLINK-4132,1 53252U 22086L   23293.84771900 -.00001757  00000-0 -92295-4 0  9993,2 53252  53.2154 143.4339 0002288  89.6137 270.5118 15.08833436 69415,6917.9,95.438,541.348,538.183,0.0
53252.0,STARLINK-4132,PAYLOAD,2023-10-21 13:49:57,15.08840399,0.0001612,53.215,140.1636,85.486,274.6316,0.00046727,7.157e-05,0.0,0 STARLINK-4132,1 53252U 22086L   23294.57636124  .00007157  00000-0  46727-3 0  9998,2 53252  53.2150 140.1636 0001612  85.4860 274.6316 15.08840399 69727,6917.879,95.438,540.859,538.629,0.0
53252.0,STARLINK-4132,PAYLOAD,2023-10-21 17:00:43,15.08847188,0.0001576,53.2151,139.5688,87.3793,272.7379,0.00066976,0.00010389,0.0,0 STARLINK-4132,1 53252U 22086L   23294.70884033  .00010389  00000-0  66976-3 0  9996,2 53252  53.2151 139.5688 0001576  87.3793 272.7379 15.08847188 69543,6917.858,95.437,540.814,538.633,0.0
53252.0,STARLINK-4132,PAYLOAD,2023-10-21 21:46:53,15.08858605,0.0001568,53.2151,138.6767,87.2617,272.8555,0.00090707,0.00014185,0.0,0 STARLINK-4132,1 53252U 22086L   23294.90755803  .00014185  00000-0  90707-3 0  9997,2 53252  53.2151 138.6767 0001568  87.2617 272.8555 15.08858605 69774,6917.824,95.436,540.773,538.604,0.0
53252.0,STARLINK-4132,PAYLOAD,2023-10-22 10:29:58,15.08841319,0.000162,53.2153,136.2977,80.8353,279.2822,-4.894e-05,-1.067e-05,0.0,0 STARLINK-4132,1 53252U 22086L   23295.43747927 -.00001067  00000-0 -48940-4 0  9994,2 53252  53.2153 136.2977 0001620  80.8353 279.2822 15.08841319 69657,6917.876,95.437,540.862,538.621,0.0
53252.0,STARLINK-4132,PAYLOAD,2023-10-22 13:40:44,15.0883933,0.0001573,53.2153,135.7029,81.7477,278.3693,-9.6751e-05,-1.827e-05,0.0,0 STARLINK-4132,1 53252U 22086L   23295.56995946 -.00001827  00000-0 -96751-4 0  9991,2 53252  53.2153 135.7029 0001573  81.7477 278.3693 15.08839330 69873,6917.882,95.438,540.836,538.659,0.0
53252.0,STARLINK-4132,PAYLOAD,2023-10-22 21:37:40,15.0884273,0.0001613,53.2157,134.2166,76.301,283.8161,0.00033452,5.04e-05,0.0,0 STARLINK-4132,1 53252U 22086L   23295.90116077  .00005040  00000-0  33452-3 0  9996,2 53252  53.2157 134.2166 0001613  76.3010 283.8161 15.08842730 69926,6917.872,95.437,540.853,538.621,0.0
53252.0,STARLINK-4132,PAYLOAD,2023-10-23 19:53:04,15.08842839,0.0001623,53.2158,130.0534,74.4759,285.6413,0.00038768,5.888e-05,0.0,0 STARLINK-4132,1 53252U 22086L   23296.82852351  .00005888  00000-0  38768-3 0  9995,2 53252  53.2158 130.0534 0001623  74.4759 285.6413 15.08842839 69863,6917.872,95.437,540.859,538.614,0.0
53252.0,STARLINK-4132,PAYLOAD,2023-10-23 21:28:27,15.08844889,0.0001621,53.2158,129.7559,74.0706,286.0464,0.00046309,7.091e-05,0.0,0 STARLINK-4132,1 53252U 22086L   23296.89476328  .00007091  00000-0  46309-3 0  9996,2 53252  53.2158 129.7559 0001621  74.0706 286.0464 15.08844889 70074,6917.865,95.437,540.852,538.609,0.0
53252.0,STARLINK-4132,PAYLOAD,2023-10-24 13:22:19,15.08838137,0.0001671,53.2157,126.7819,74.5994,285.5182,0.00010812,1.433e-05,0.0,0 STARLINK-4132,1 53252U 22086L   23297.55716478  .00001433  00000-0  10812-3 0  9997,2 53252  53.2157 126.7819 0001671  74.5994 285.5182 15.08838137 69975,6917.886,95.438,540.907,538.595,0.0
53252.0,STARLINK-4132,PAYLOAD,2023-10-25 21:10:01,15.08844125,0.0001567,53.2157,120.8345,77.5773,282.5395,0.00012636,1.724e-05,0.0,0 STARLINK-4132,1 53252U 22086L   23298.88196230  .00001724  00000-0  12636-3 0  9991,2 53252  53.2157 120.8345 0001567  77.5773 282.5395 15.08844125 70177,6917.868,95.437,540.817,538.649,0.0
53252.0,STARLINK-4132,PAYLOAD,2023-10-26 11:28:30,15.08838707,0.000158,53.2155,118.1578,79.0205,281.0965,1.6474e-05,-2.6e-07,0.0,0 STARLINK-4132,1 53252U 22086L   23299.47812505 -.00000026  00000-0  16474-4 0  9997,2 53252  53.2155 118.1578 0001580  79.0205 281.0965 15.08838707 70261,6917.884,95.438,540.842,538.656,0.0
53252.0,STARLINK-4132,PAYLOAD,2023-10-26 13:03:53,15.08839314,0.0001562,53.2156,117.8607,82.4761,277.6408,7.3712e-05,8.85e-06,0.0,0 STARLINK-4132,1 53252U 22086L   23299.54436480  .00000885  00000-0  73712-4 0  9999,2 53252  53.2156 117.8607 0001562  82.4761 277.6408 15.08839314 70477,6917.882,95.438,540.828,538.667,0.0
53252.0,STARLINK-4132,PAYLOAD,2023-10-26 19:25:25,15.0884344,0.0001548,53.2157,116.6711,81.6314,278.4854,0.0001042,1.371e-05,0.0,0 STARLINK-4132,1 53252U 22086L   23299.80932302  .00001371  00000-0  10420-3 0  9999,2 53252  53.2157 116.6711 0001548  81.6314 278.4854 15.08843440 70514,6917.87,95.437,540.806,538.664,0.0
53252.0,STARLINK-4132,PAYLOAD,2023-10-27 11:19:16,15.08842235,0.0001458,53.2158,113.6971,85.5294,274.5864,8.9369e-05,1.135e-05,0.0,0 STARLINK-4132,1 53252U 22086L   23300.47172348  .00001135  00000-0  89369-4 0  9998,2 53252  53.2158 113.6971 0001458  85.5294 274.5864 15.08842235 70610,6917.874,95.437,540.747,538.73,0.0
53252.0,STARLINK-4132,PAYLOAD,2023-10-27 20:51:35,15.08847325,0.0001532,53.2158,111.913,85.8895,274.2272,0.00016338,2.314e-05,0.0,0 STARLINK-4132,1 53252U 22086L   23300.86916062  .00002314  00000-0  16338-3 0  9995,2 53252  53.2158 111.9130 0001532  85.8895 274.2272 15.08847325 70470,6917.858,95.437,540.783,538.663,0.0
53252.0,STARLINK-4132,PAYLOAD,2023-10-28 11:10:04,15.08836701,0.0001646,53.216,109.2374,86.6322,273.4858,5.2772e-05,5.52e-06,0.0,0 STARLINK-4132,1 53252U 22086L   23301.46532744  .00000552  00000-0  52772-4 0  9998,2 53252  53.2160 109.2374 0001646  86.6322 273.4858 15.08836701 70560,6917.89,95.438,540.894,538.617,0.0
53252.0,STARLINK-4132,PAYLOAD,2023-10-28 17:31:36,15.0884126,0.0001617,53.2151,108.0463,91.1374,268.9803,0.00011592,1.557e-05,0.0,0 STARLINK-4132,1 53252U 22086L   23301.73028539  .00001557  00000-0  11592-3 0  9990,2 53252  53.2151 108.0463 0001617  91.1374 268.9803 15.08841260 70804,6917.877,95.437,540.86,538.623,0.0
53252.0,STARLINK-4132,PAYLOAD,2023-10-29 11:00:50,15.08847885,0.0001424,53.2155,104.7759,92.4096,267.7059,0.00021044,3.063e-05,0.0,0 STARLINK-4132,1 53252U 22086L   23302.45892252  .00003063  00000-0  21044-3 0  9998,2 53252  53.2155 104.7759 0001424  92.4096 267.7059 15.08847885 70719,6917.856,95.437,540.706,538.736,0.0
53252.0,STARLINK-4132,PAYLOAD,2023-10-29 17:22:23,15.08848622,0.0001461,53.2161,103.5857,97.5493,262.5665,0.00018665,2.685e-05,0.0,0 STARLINK-4132,1 53252U 22086L   23302.72388187  .00002685  00000-0  18665-3 0  9999,2 53252  53.2161 103.5857 0001461  97.5493 262.5665 15.08848622 70952,6917.854,95.437,540.73,538.708,0.0
53252.0,STARLINK-4132,PAYLOAD,2023-10-30 10:51:38,15.08836183,0.00014,53.2158,100.3156,92.1547,267.9606,0.00011514,1.545e-05,0.0,0 STARLINK-4132,1 53252U 22086L   23303.45252938  .00001545  00000-0  11514-3 0  9994,2 53252  53.2158 100.3156 0001400  92.1547 267.9606 15.08836183 70862,6917.892,95.438,540.726,538.789,0.0
53252.0,STARLINK-4132,PAYLOAD,2023-10-31 13:53:11,15.08837994,0.0001507,53.2161,95.2621,77.0714,283.0447,2.6873e-05,1.4e-06,0.0,0 STARLINK-4132,1 53252U 22086L   23304.57861049  .00000140  00000-0  26873-4 0  9992,2 53252  53.2161  95.2621 0001507  77.0714 283.0447 15.08837994 71236,6917.887,95.438,540.794,538.709,0.0
53252.0,STARLINK-4132,PAYLOAD,2023-10-31 17:03:57,15.08843105,0.0001406,53.2175,94.6663,89.29,270.8254,4.5558e-05,4.37e-06,0.0,0 STARLINK-4132,1 53252U 22086L   23304.71108692  .00000437  00000-0  45558-4 0  9996,2 53252  53.2175  94.6663 0001406  89.2900 270.8254 15.08843105 71051,6917.871,95.437,540.709,538.763,0.0
53252.0,STARLINK-4132,PAYLOAD,2023-11-01 10:33:12,15.08842448,0.0001262,53.2176,91.3964,92.294,267.8197,-6.2882e-05,-1.289e-05,0.0,0 STARLINK-4132,1 53252U 22086L   23305.43973326 -.00001289  00000-0 -62882-4 0  9997,2 53252  53.2176  91.3964 0001262  92.2940 267.8197 15.08842448 71161,6917.873,95.437,540.611,538.865,0.0
53252.0,STARLINK-4132,PAYLOAD,2023-11-01 13:43:59,15.08808575,0.0001556,53.2174,90.8012,92.1624,267.9546,0.00042443,6.468e-05,0.0,0 STARLINK-4132,1 53252U 22086L   23305.57222050  .00006468  00000-0  42443-3 0  9995,2 53252  53.2174  90.8012 0001556  92.1624 267.9546 15.08808575 71387,6917.976,95.44,540.918,538.765,0.0
53252.0,STARLINK-4132,PAYLOAD,2023-11-01 16:54:45,15.08839621,0.0001329,53.2172,90.2062,93.3387,266.7757,0.00011059,1.473e-05,0.0,0 STARLINK-4132,1 53252U 22086L   23305.70468984  .00001473  00000-0  11059-3 0  9998,2 53252  53.2172  90.2062 0001329  93.3387 266.7757 15.08839621 71401,6917.882,95.438,540.666,538.827,0.0
53252.0,STARLINK-4132,PAYLOAD,2023-11-02 11:59:23,15.08833017,0.0001278,53.2176,86.6375,85.5565,274.5573,3.1884e-06,-2.37e-06,0.0,0 STARLINK-4132,1 53252U 22086L   23306.49957907 -.00000237  00000-0  31884-5 0  9991,2 53252  53.2176  86.6375 0001278  85.5565 274.5573 15.08833017 71322,6917.902,95.438,540.651,538.883,0.0
53252.0,STARLINK-4132,PAYLOAD,2023-11-02 13:34:46,15.0883351,0.0001261,53.2175,86.3403,85.8459,274.2677,1.3412e-05,-7.4e-07,0.0,0 STARLINK-4132,1 53252U 22086L   23306.56581833 -.00000074  00000-0  13412-4 0  9995,2 53252  53.2175  86.3403 0001261  85.8459 274.2677 15.08833510 71530,6917.9,95.438,540.638,538.893,0.0
